{
 "generated_at": "2026-07-12T07:29:19Z",
 "sources": [
  {
   "name": "CelesTrak",
   "url": "https://celestrak.org/NORAD/elements/",
   "license": "frei verfügbar; Attribution. Ursprünglich USSPACECOM/Space-Track."
  },
  {
   "name": "GCAT (J. McDowell, planet4589.org)",
   "url": "https://planet4589.org/space/gcat/",
   "license": "CC-BY 4.0"
  }
 ],
 "satellites": [
  {
   "norad": 68485,
   "name": "CAPELLA-20 (ACADIA-10)",
   "intl": "2026-067BX",
   "group": "sar",
   "gcat": {
    "class": "B",
    "category": "IMG-R",
    "owner": "CAPSP",
    "state": "US"
   },
   "omm": {
    "OBJECT_NAME": "CAPELLA-20 (ACADIA-10)",
    "OBJECT_ID": "2026-067BX",
    "EPOCH": "2026-07-11T20:16:06.756960",
    "MEAN_MOTION": 14.9166386,
    "ECCENTRICITY": 0.00008212,
    "INCLINATION": 97.7582,
    "RA_OF_ASC_NODE": 150.7468,
    "ARG_OF_PERICENTER": 138.5256,
    "MEAN_ANOMALY": 221.6025,
    "EPHEMERIS_TYPE": 0,
    "CLASSIFICATION_TYPE": "U",
    "NORAD_CAT_ID": 68485,
    "ELEMENT_SET_NO": 999,
    "REV_AT_EPOCH": 1540,
    "BSTAR": 0.00038131641,
    "MEAN_MOTION_DOT": 0.00003778,
    "MEAN_MOTION_DDOT": 0
   }
  },
  {
   "norad": 40718,
   "name": "CARBONITE 1 (CBNT-1)",
   "intl": "2015-032D",
   "group": "resource",
   "gcat": {
    "class": "B",
    "category": "IMG",
    "owner": "SSTLA",
    "state": "UK"
   },
   "omm": {
    "OBJECT_NAME": "CARBONITE 1 (CBNT-1)",
    "OBJECT_ID": "2015-032D",
    "EPOCH": "2026-07-11T22:25:37.058016",
    "MEAN_MOTION": 14.83665193,
    "ECCENTRICITY": 0.00135309,
    "INCLINATION": 97.652,
    "RA_OF_ASC_NODE": 9.9673,
    "ARG_OF_PERICENTER": 208.2112,
    "MEAN_ANOMALY": 151.8371,
    "EPHEMERIS_TYPE": 0,
    "CLASSIFICATION_TYPE": "U",
    "NORAD_CAT_ID": 40718,
    "ELEMENT_SET_NO": 999,
    "REV_AT_EPOCH": 59301,
    "BSTAR": 0.00021264887,
    "MEAN_MOTION_DOT": 0.00001707,
    "MEAN_MOTION_DDOT": 0
   }
  },
  {
   "norad": 67397,
   "name": "CARBSAR",
   "intl": "2026-004AL",
   "group": "sar",
   "gcat": {
    "class": "B",
    "category": "IMG-R",
    "owner": "SSTL",
    "state": "UK"
   },
   "omm": {
    "OBJECT_NAME": "CARBSAR",
    "OBJECT_ID": "2026-004AL",
    "EPOCH": "2026-07-11T22:23:53.448000",
    "MEAN_MOTION": 15.19880417,
    "ECCENTRICITY": 0.00038611,
    "INCLINATION": 97.4543,
    "RA_OF_ASC_NODE": 191.8024,
    "ARG_OF_PERICENTER": 237.5063,
    "MEAN_ANOMALY": 122.5799,
    "EPHEMERIS_TYPE": 0,
    "CLASSIFICATION_TYPE": "U",
    "NORAD_CAT_ID": 67397,
    "ELEMENT_SET_NO": 999,
    "REV_AT_EPOCH": 2752,
    "BSTAR": 0.00017663368,
    "MEAN_MOTION_DOT": 0.00003723,
    "MEAN_MOTION_DDOT": 0
   }
  },
  {
   "norad": 32783,
   "name": "CARTOSAT-2A",
   "intl": "2008-021A",
   "group": "resource",
   "gcat": {
    "class": "D",
    "category": "IMG",
    "owner": "ISRO",
    "state": "IN"
   },
   "omm": {
    "OBJECT_NAME": "CARTOSAT-2A",
    "OBJECT_ID": "2008-021A",
    "EPOCH": "2026-07-11T22:32:15.436320",
    "MEAN_MOTION": 14.79272408,
    "ECCENTRICITY": 0.0012741,
    "INCLINATION": 97.7628,
    "RA_OF_ASC_NODE": 240.8011,
    "ARG_OF_PERICENTER": 36.9741,
    "MEAN_ANOMALY": 323.2347,
    "EPHEMERIS_TYPE": 0,
    "CLASSIFICATION_TYPE": "U",
    "NORAD_CAT_ID": 32783,
    "ELEMENT_SET_NO": 999,
    "REV_AT_EPOCH": 98246,
    "BSTAR": -0.000005130016,
    "MEAN_MOTION_DOT": -8.8e-7,
    "MEAN_MOTION_DDOT": 0
   }
  },
  {
   "norad": 36795,
   "name": "CARTOSAT-2B",
   "intl": "2010-035A",
   "group": "resource",
   "gcat": {
    "class": "D",
    "category": "IMG",
    "owner": "ISRO",
    "state": "IN"
   },
   "omm": {
    "OBJECT_NAME": "CARTOSAT-2B",
    "OBJECT_ID": "2010-035A",
    "EPOCH": "2026-07-11T23:19:28.612416",
    "MEAN_MOTION": 14.78615162,
    "ECCENTRICITY": 0.00125271,
    "INCLINATION": 97.9947,
    "RA_OF_ASC_NODE": 243.361,
    "ARG_OF_PERICENTER": 108.464,
    "MEAN_ANOMALY": 251.7934,
    "EPHEMERIS_TYPE": 0,
    "CLASSIFICATION_TYPE": "U",
    "NORAD_CAT_ID": 36795,
    "ELEMENT_SET_NO": 999,
    "REV_AT_EPOCH": 86351,
    "BSTAR": 0.000076320107,
    "MEAN_MOTION_DOT": 0.00000507,
    "MEAN_MOTION_DDOT": 0
   }
  },
  {
   "norad": 41599,
   "name": "CARTOSAT-2C",
   "intl": "2016-040A",
   "group": "resource",
   "gcat": {
    "class": "D",
    "category": "IMG",
    "owner": "ISRO",
    "state": "IN"
   },
   "omm": {
    "OBJECT_NAME": "CARTOSAT-2C",
    "OBJECT_ID": "2016-040A",
    "EPOCH": "2026-07-11T22:58:32.446272",
    "MEAN_MOTION": 15.19249288,
    "ECCENTRICITY": 0.00098283,
    "INCLINATION": 97.4479,
    "RA_OF_ASC_NODE": 252.5925,
    "ARG_OF_PERICENTER": 55.1836,
    "MEAN_ANOMALY": 305.0322,
    "EPHEMERIS_TYPE": 0,
    "CLASSIFICATION_TYPE": "U",
    "NORAD_CAT_ID": 41599,
    "ELEMENT_SET_NO": 999,
    "REV_AT_EPOCH": 55747,
    "BSTAR": 0.00011693141,
    "MEAN_MOTION_DOT": 0.00002398,
    "MEAN_MOTION_DDOT": 0
   }
  },
  {
   "norad": 41948,
   "name": "CARTOSAT-2D",
   "intl": "2017-008A",
   "group": "resource",
   "gcat": {
    "class": "D",
    "category": "IMG",
    "owner": "ISRO",
    "state": "IN"
   },
   "omm": {
    "OBJECT_NAME": "CARTOSAT-2D",
    "OBJECT_ID": "2017-008A",
    "EPOCH": "2026-07-11T23:44:19.921344",
    "MEAN_MOTION": 15.19266943,
    "ECCENTRICITY": 0.00057089,
    "INCLINATION": 97.4099,
    "RA_OF_ASC_NODE": 251.8298,
    "ARG_OF_PERICENTER": 147.4843,
    "MEAN_ANOMALY": 212.6745,
    "EPHEMERIS_TYPE": 0,
    "CLASSIFICATION_TYPE": "U",
    "NORAD_CAT_ID": 41948,
    "ELEMENT_SET_NO": 999,
    "REV_AT_EPOCH": 52134,
    "BSTAR": 0.000088011887,
    "MEAN_MOTION_DOT": 0.00001789,
    "MEAN_MOTION_DDOT": 0
   }
  },
  {
   "norad": 42767,
   "name": "CARTOSAT-2E",
   "intl": "2017-036C",
   "group": "resource",
   "gcat": {
    "class": "D",
    "category": "IMG",
    "owner": "ISRO",
    "state": "IN"
   },
   "omm": {
    "OBJECT_NAME": "CARTOSAT-2E",
    "OBJECT_ID": "2017-036C",
    "EPOCH": "2026-07-11T22:34:58.943136",
    "MEAN_MOTION": 15.1923853,
    "ECCENTRICITY": 0.00029223,
    "INCLINATION": 97.4272,
    "RA_OF_ASC_NODE": 252.3334,
    "ARG_OF_PERICENTER": 198.4154,
    "MEAN_ANOMALY": 161.6975,
    "EPHEMERIS_TYPE": 0,
    "CLASSIFICATION_TYPE": "U",
    "NORAD_CAT_ID": 42767,
    "ELEMENT_SET_NO": 999,
    "REV_AT_EPOCH": 50190,
    "BSTAR": 0.00009464833,
    "MEAN_MOTION_DOT": 0.00001926,
    "MEAN_MOTION_DDOT": 0
   }
  },
  {
   "norad": 43111,
   "name": "CARTOSAT-2F",
   "intl": "2018-004A",
   "group": "resource",
   "gcat": {
    "class": "D",
    "category": "IMG",
    "owner": "ISRO",
    "state": "IN"
   },
   "omm": {
    "OBJECT_NAME": "CARTOSAT-2F",
    "OBJECT_ID": "2018-004A",
    "EPOCH": "2026-07-11T21:47:03.861312",
    "MEAN_MOTION": 15.19253104,
    "ECCENTRICITY": 0.00024503,
    "INCLINATION": 97.4784,
    "RA_OF_ASC_NODE": 252.299,
    "ARG_OF_PERICENTER": 143.5676,
    "MEAN_ANOMALY": 216.5725,
    "EPHEMERIS_TYPE": 0,
    "CLASSIFICATION_TYPE": "U",
    "NORAD_CAT_ID": 43111,
    "ELEMENT_SET_NO": 999,
    "REV_AT_EPOCH": 47108,
    "BSTAR": 0.000099816288,
    "MEAN_MOTION_DOT": 0.00002035,
    "MEAN_MOTION_DDOT": 0
   }
  },
  {
   "norad": 44804,
   "name": "CARTOSAT-3",
   "intl": "2019-081A",
   "group": "resource",
   "gcat": {
    "class": "D",
    "category": "IMG",
    "owner": "ISRO",
    "state": "IN"
   },
   "omm": {
    "OBJECT_NAME": "CARTOSAT-3",
    "OBJECT_ID": "2019-081A",
    "EPOCH": "2026-07-11T23:42:22.961664",
    "MEAN_MOTION": 15.19306488,
    "ECCENTRICITY": 0.00132919,
    "INCLINATION": 97.4299,
    "RA_OF_ASC_NODE": 254.454,
    "ARG_OF_PERICENTER": 71.1756,
    "MEAN_ANOMALY": 289.0919,
    "EPHEMERIS_TYPE": 0,
    "CLASSIFICATION_TYPE": "U",
    "NORAD_CAT_ID": 44804,
    "ELEMENT_SET_NO": 999,
    "REV_AT_EPOCH": 36723,
    "BSTAR": 0.000061759912,
    "MEAN_MOTION_DOT": 0.00001238,
    "MEAN_MOTION_DDOT": 0
   }
  }
 ]
}
